EUTELSAT 8 WEST B       
1 40875U 15039B   25271.92849606 -.00000061  00000+0  00000+0 0  9999
2 40875   0.0672   0.1162 0003738 190.6789 143.4342  1.00271169 37033
EUTELSAT 9B             
1 41310U 16005A   25271.93187608  .00000066  00000+0  00000+0 0  9990
2 41310   0.0621  68.9440 0002508 154.7002 128.7903  1.00273634 35492
EUTELSAT 65 WEST A      
1 41382U 16014A   25271.56028201 -.00000272  00000+0  00000+0 0  9991
2 41382   0.0573  18.0596 0002169 162.7190 323.3298  1.00273254 34919
EUTELSAT 117 WEST B     
1 41589U 16038B   25271.90682932 -.00000008  00000+0  00000+0 0  9998
2 41589   0.0197  34.4756 0000326 215.9455 326.9642  1.00270172 34040
EUTELSAT 172B           
1 42741U 17029B   25271.89278926 -.00000002  00000+0  00000+0 0  9996
2 42741   0.0160 179.2012 0000519 265.9669  56.1745  1.00269152 31117
EUTELSAT 7C             
1 44334U 19034B   25271.21779924  .00000053  00000+0  00000+0 0  9999
2 44334   0.0673 184.9537 0003417 342.7244 284.9912  1.00273283  4201
EUTELSAT 5 WEST B       
1 44624U 19067A   25271.92910273 -.00000038  00000+0  00000+0 0  9993
2 44624   0.0666 348.7848 0003096 197.3260 151.3255  1.00272101 21816
EUTELSAT KONNECT        
1 45027U 20005B   25271.93152941  .00000053  00000+0  00000+0 0  9992
2 45027   0.0641  96.3988 0001480  71.6353 182.4684  1.00269914 21707
